{
    "links": {
        "self": "http://www.neowsapp.com/rest/v1/neo/3795084?api_key=iIulBulltgU6a56xZRHN4H3l9WmuAYTsLGpBGhQ2"
    },
    "id": "3795084",
    "neo_reference_id": "3795084",
    "name": "(2017 YM5)",
    "designation": "2017 YM5",
    "nasa_jpl_url": "http://ssd.jpl.nasa.gov/sbdb.cgi?sstr=3795084",
    "absolute_magnitude_h": 24.7,
    "estimated_diameter": {
        "kilometers": {
            "estimated_diameter_min": 0.0305179233,
            "estimated_diameter_max": 0.0682401509
        },
        "meters": {
            "estimated_diameter_min": 30.5179232594,
            "estimated_diameter_max": 68.2401509401
        },
        "miles": {
            "estimated_diameter_min": 0.0189629525,
            "estimated_diameter_max": 0.0424024508
        },
        "feet": {
            "estimated_diameter_min": 100.1244233463,
            "estimated_diameter_max": 223.8850168104
        }
    },
    "is_potentially_hazardous_asteroid": false,
    "close_approach_data": [
        {
            "close_approach_date": "2017-12-27",
            "close_approach_date_full": "2017-Dec-27 07:32",
            "epoch_date_close_approach": 1514359920000,
            "relative_velocity": {
                "kilometers_per_second": "13.5193432921",
                "kilometers_per_hour": "48669.6358515067",
                "miles_per_hour": "30241.4190100654"
            },
            "miss_distance": {
                "astronomical": "0.0787175343",
                "lunar": "30.6211208427",
                "kilometers": "11775975.462931941",
                "miles": "7317251.8471891458"
            },
            "orbiting_body": "Earth"
        }
    ],
    "orbital_data": {
        "orbit_id": "2",
        "orbit_determination_date": "2017-12-30 06:31:03",
        "first_observation_date": "2017-12-25",
        "last_observation_date": "2017-12-30",
        "data_arc_in_days": 5,
        "observations_used": 34,
        "orbit_uncertainty": "8",
        "minimum_orbit_intersection": ".0756682",
        "jupiter_tisserand_invariant": "4.869",
        "epoch_osculation": "2458114.5",
        "eccentricity": ".1911735137114469",
        "semi_major_axis": "1.308430236575407",
        "inclination": "25.06619506491785",
        "ascending_node_longitude": "95.68662776079255",
        "orbital_period": "546.6687953274901",
        "perihelion_distance": "1.058293030802987",
        "perihelion_argument": "5.724985848812031",
        "aphelion_distance": "1.558567442347828",
        "perihelion_time": "2458119.509817516611",
        "mean_anomaly": "356.7008647257806",
        "mean_motion": ".6585340211056617",
        "equinox": "J2000",
        "orbit_class": {
            "orbit_class_type": "AMO",
            "orbit_class_description": "Near-Earth asteroid orbits similar to that of 1221 Amor",
            "orbit_class_range": "1.017 AU < q (perihelion) < 1.3 AU"
        }
    },
    "is_sentry_object": false
}